{"spaceTrack"{"CCSDS_OMM_VERS":"2.0","COMMENT":"GENERATED VIA SPACE-TRACK.ORG API","CREATION_DATE":"2021-01-26T06:26:10","ORIGINATOR":"18 SPCS","OBJECT_NAME":"STARLINK-1076","OBJECT_ID":"2020-001AX","CENTER_NAME":"EARTH","REF_FRAME":"TEME","TIME_SYSTEM":"UTC","MEAN_ELEMENT_THEORY":"SGP4","EPOCH":"2021-01-26T06:26:10","MEAN_MOTION":15.06389437,"ECCENTRICITY":0.0001891,"INCLINATION":53.0576,"RA_OF_ASC_NODE":53.8833,"ARG_OF_PERICENTER":48.8716,"MEAN_ANOMALY":311.2436,"EPHEMERIS_TYPE":0,"CLASSIFICATION_TYPE":"U","NORAD_CAT_ID":44959,"ELEMENT_SET_NO":999,"REV_AT_EPOCH":5880,"BSTAR":0.00007923,"MEAN_MOTION_DOT":0.00000898,"MEAN_MOTION_DDOT":0,"SEMIMAJOR_AXIS":6925.381,"PERIOD":95.593,"APOAPSIS":548.556,"PERIAPSIS":545.936,"OBJECT_TYPE":"PAYLOAD","RCS_SIZE":"LARGE","COUNTRY_CODE":"US","LAUNCH_DATE":"2020-01-07","SITE":"AFETR","DECAY_DATE":null,"DECAYED":0,"FILE":2940260,"GP_ID":170413443,"TLE_LINE0":"0 STARLINK-1076","TLE_LINE1":"1 44959U 20001AX  21026.35392811  .00000898  00000-0  79230-4 0  9997","TLE_LINE2":"2 44959  53.0576  53.8833 0001891  48.8716 311.2436 15.06389437 58809"},"version":"v1.0","launch":"5eb87d3cffd86e000604b380","longitude":105,"latitude":5.755559446935688,"height_km":548.2489541503637,"velocity_kms":7.589108559416302,"id":"5eed7714096e5900069856a3"}
{"spaceTrack"{"CCSDS_OMM_VERS":"2.0","COMMENT":"GENERATED VIA SPACE-TRACK.ORG API","CREATION_DATE":"2021-01-26T06:26:10","ORIGINATOR":"18 SPCS","OBJECT_NAME":"STARLINK-1069","OBJECT_ID":"2020-001AT","CENTER_NAME":"EARTH","REF_FRAME":"TEME","TIME_SYSTEM":"UTC","MEAN_ELEMENT_THEORY":"SGP4","EPOCH":"2021-01-26T06:26:10","MEAN_MOTION":15.06396821,"ECCENTRICITY":0.0001451,"INCLINATION":53.0574,"RA_OF_ASC_NODE":53.4514,"ARG_OF_PERICENTER":65.1334,"MEAN_ANOMALY":294.9806,"EPHEMERIS_TYPE":0,"CLASSIFICATION_TYPE":"U","NORAD_CAT_ID":44955,"ELEMENT_SET_NO":999,"REV_AT_EPOCH":5876,"BSTAR":-0.000058292,"MEAN_MOTION_DOT":-0.0000115,"MEAN_MOTION_DDOT":0,"SEMIMAJOR_AXIS":6925.358,"PERIOD":95.592,"APOAPSIS":548.228,"PERIAPSIS":546.218,"OBJECT_TYPE":"PAYLOAD","RCS_SIZE":"LARGE","COUNTRY_CODE":"US","LAUNCH_DATE":"2020-01-07","SITE":"AFETR","DECAY_DATE":null,"DECAYED":0,"FILE":2940007,"GP_ID":170388662,"TLE_LINE0":"0 STARLINK-1069","TLE_LINE1":"1 44955U 20001AT  21026.44976899 -.00001150  00000-0 -58292-4 0  9996","TLE_LINE2":"2 44955  53.0574  53.4514 0001451  65.1334 294.9806 15.06396821 58763"},"version":"v1.0","launch":"5eb87d3cffd86e000604b380","longitude":87,"latitude":10.191380910186142,"height_km":546.7644534808287,"velocity_kms":7.591001750877056,"id":"5eed7714096e5900069856a4"}
{"spaceTrack"{"CCSDS_OMM_VERS":"2.0","COMMENT":"GENERATED VIA SPACE-TRACK.ORG API","CREATION_DATE":"2021-01-26T06:26:10","ORIGINATOR":"18 SPCS","OBJECT_NAME":"STARLINK-1088","OBJECT_ID":"2020-001BE","CENTER_NAME":"EARTH","REF_FRAME":"TEME","TIME_SYSTEM":"UTC","MEAN_ELEMENT_THEORY":"SGP4","EPOCH":"2021-01-26T06:26:10","MEAN_MOTION":15.06392026,"ECCENTRICITY":0.0001545,"INCLINATION":53.0587,"RA_OF_ASC_NODE":53.919,"ARG_OF_PERICENTER":73.767,"MEAN_ANOMALY":286.3489,"EPHEMERIS_TYPE":0,"CLASSIFICATION_TYPE":"U","NORAD_CAT_ID":44966,"ELEMENT_SET_NO":999,"REV_AT_EPOCH":5880,"BSTAR":0.00019131,"MEAN_MOTION_DOT":0.00002569,"MEAN_MOTION_DDOT":0,"SEMIMAJOR_AXIS":6925.373,"PERIOD":95.593,"APOAPSIS":548.308,"PERIAPSIS":546.168,"OBJECT_TYPE":"PAYLOAD","RCS_SIZE":"LARGE","COUNTRY_CODE":"US","LAUNCH_DATE":"2020-01-07","SITE":"AFETR","DECAY_DATE":null,"DECAYED":0,"FILE":2940260,"GP_ID":170412291,"TLE_LINE0":"0 STARLINK-1088","TLE_LINE1":"1 44966U 20001BE  21026.34656691  .00002569  00000-0  19131-3 0  9993","TLE_LINE2":"2 44966  53.0587  53.9190 0001545  73.7670 286.3489 15.06392026 58806"},"version":"v1.0","launch":"5eb87d3cffd86e000604b380","longitude":110,"latitude":-25.766298119646663,"height_km":555.5333964006568,"velocity_kms":7.583433237263854,"id":"5eed7714096e5900069856a5"}
{"spaceTrack"{"CCSDS_OMM_VERS":"2.0","COMMENT":"GENERATED VIA SPACE-TRACK.ORG API","CREATION_DATE":"2021-01-26T06:26:10","ORIGINATOR":"18 SPCS","OBJECT_NAME":"STARLINK-1099","OBJECT_ID":"2020-001E","CENTER_NAME":"EARTH","REF_FRAME":"TEME","TIME_SYSTEM":"UTC","MEAN_ELEMENT_THEORY":"SGP4","EPOCH":"2021-01-26T06:26:10","MEAN_MOTION":15.05586106,"ECCENTRICITY":0.0001202,"INCLINATION":53.0014,"RA_OF_ASC_NODE":93.1071,"ARG_OF_PERICENTER":95.6468,"MEAN_ANOMALY":264.4657,"EPHEMERIS_TYPE":0,"CLASSIFICATION_TYPE":"U","NORAD_CAT_ID":44918,"ELEMENT_SET_NO":999,"REV_AT_EPOCH":5901,"BSTAR":0.000072601,"MEAN_MOTION_DOT":0.00000779,"MEAN_MOTION_DDOT":0,"SEMIMAJOR_AXIS":6927.844,"PERIOD":95.644,"APOAPSIS":550.542,"PERIAPSIS":548.876,"OBJECT_TYPE":"PAYLOAD","RCS_SIZE":"LARGE","COUNTRY_CODE":"US","LAUNCH_DATE":"2020-01-07","SITE":"AFETR","DECAY_DATE":null,"DECAYED":0,"FILE":2940260,"GP_ID":170413438,"TLE_LINE0":"0 STARLINK-1099","TLE_LINE1":"1 44918U 20001E   21026.53005036  .00000779  00000-0  72601-4 0  9995","TLE_LINE2":"2 44918  53.0014  93.1071 0001202  95.6468 264.4657 15.05586106 59011"},"version":"v1.0","launch":"5eb87d3cffd86e000604b380","longitude":108,"latitude":-46.187935737174456,"height_km":566.183372985799,"velocity_kms":7.5774305231627,"id":"5eed7714096e5900069856a6"}
{"spaceTrack"{"CCSDS_OMM_VERS":"2.0","COMMENT":"GENERATED VIA SPACE-TRACK.ORG API","CREATION_DATE":"2021-01-26T06:26:10","ORIGINATOR":"18 SPCS","OBJECT_NAME":"STARLINK-1082","OBJECT_ID":"2020-001AA","CENTER_NAME":"EARTH","REF_FRAME":"TEME","TIME_SYSTEM":"UTC","MEAN_ELEMENT_THEORY":"SGP4","EPOCH":"2021-01-26T06:26:10","MEAN_MOTION":15.06399327,"ECCENTRICITY":0.0001329,"INCLINATION":53.0568,"RA_OF_ASC_NODE":73.2097,"ARG_OF_PERICENTER":71.2363,"MEAN_ANOMALY":288.877,"EPHEMERIS_TYPE":0,"CLASSIFICATION_TYPE":"U","NORAD_CAT_ID":44938,"ELEMENT_SET_NO":999,"REV_AT_EPOCH":5854,"BSTAR":-0.0000037491,"MEAN_MOTION_DOT":-0.00000337,"MEAN_MOTION_DDOT":0,"SEMIMAJOR_AXIS":6925.351,"PERIOD":95.592,"APOAPSIS":548.136,"PERIAPSIS":546.295,"OBJECT_TYPE":"PAYLOAD","RCS_SIZE":"LARGE","COUNTRY_CODE":"US","LAUNCH_DATE":"2020-01-07","SITE":"AFETR","DECAY_DATE":null,"DECAYED":0,"FILE":2940260,"GP_ID":170412943,"TLE_LINE0":"0 STARLINK-1082","TLE_LINE1":"1 44938U 20001AA  21026.49952502 -.00000337  00000-0 -37491-5 0  9992","TLE_LINE2":"2 44938  53.0568  73.2097 0001329  71.2363 288.8770 15.06399327 58549"},"version":"v1.0","launch":"5eb87d3cffd86e000604b380","longitude":32,"latitude":51.37603837746933,"height_km":552.5653489152519,"velocity_kms":7.592143989038186,"id":"5eed7714096e5900069856a7"}
{"spaceTrack"{"CCSDS_OMM_VERS":"2.0","COMMENT":"GENERATED VIA SPACE-TRACK.ORG API","CREATION_DATE":"2021-01-26T06:26:10","ORIGINATOR":"18 SPCS","OBJECT_NAME":"STARLINK-1068","OBJECT_ID":"2019-074BM","CENTER_NAME":"EARTH","REF_FRAME":"TEME","TIME_SYSTEM":"UTC","MEAN_ELEMENT_THEORY":"SGP4","EPOCH":"2021-01-26T06:26:10","MEAN_MOTION":15.06424047,"ECCENTRICITY":0.0002464,"INCLINATION":53.0593,"RA_OF_ASC_NODE":314.5517,"ARG_OF_PERICENTER":69.1523,"MEAN_ANOMALY":290.973,"EPHEMERIS_TYPE":0,"CLASSIFICATION_TYPE":"U","NORAD_CAT_ID":44772,"ELEMENT_SET_NO":999,"REV_AT_EPOCH":6684,"BSTAR":0.000068594,"MEAN_MOTION_DOT":0.00000741,"MEAN_MOTION_DDOT":0,"SEMIMAJOR_AXIS":6925.275,"PERIOD":95.591,"APOAPSIS":548.846,"PERIAPSIS":545.433,"OBJECT_TYPE":"PAYLOAD","RCS_SIZE":"LARGE","COUNTRY_CODE":"US","LAUNCH_DATE":"2019-11-11","SITE":"AFETR","DECAY_DATE":null,"DECAYED":0,"FILE":2940260,"GP_ID":170413200,"TLE_LINE0":"0 STARLINK-1068","TLE_LINE1":"1 44772U 19074BM  21026.20827694  .00000741  00000-0  68594-4 0  9992","TLE_LINE2":"2 44772  53.0593 314.5517 0002464  69.1523 290.9730 15.06424047 66846"},"version":"v1.0","launch":"5eb87d39ffd86e000604b37d","longitude":104,"latitude":-45.65278309710472,"height_km":564.2989053183528,"velocity_kms":7.577960872449454,"id":"5eed7714096e5900069856a8"}
{"spaceTrack"{"CCSDS_OMM_VERS":"2.0","COMMENT":"GENERATED VIA SPACE-TRACK.ORG API","CREATION_DATE":"2021-01-26T06:26:10","ORIGINATOR":"18 SPCS","OBJECT_NAME":"STARLINK-1074","OBJECT_ID":"2020-001AV","CENTER_NAME":"EARTH","REF_FRAME":"TEME","TIME_SYSTEM":"UTC","MEAN_ELEMENT_THEORY":"SGP4","EPOCH":"2021-01-26T06:26:10","MEAN_MOTION":15.06403824,"ECCENTRICITY":0.000148,"INCLINATION":53.0577,"RA_OF_ASC_NODE":53.3482,"ARG_OF_PERICENTER":61.9704,"MEAN_ANOMALY":298.1435,"EPHEMERIS_TYPE":0,"CLASSIFICATION_TYPE":"U","NORAD_CAT_ID":44957,"ELEMENT_SET_NO":999,"REV_AT_EPOCH":5882,"BSTAR":0.000061451,"MEAN_MOTION_DOT":0.00000634,"MEAN_MOTION_DDOT":0,"SEMIMAJOR_AXIS":6925.337,"PERIOD":95.592,"APOAPSIS":548.227,"PERIAPSIS":546.177,"OBJECT_TYPE":"PAYLOAD","RCS_SIZE":"LARGE","COUNTRY_CODE":"US","LAUNCH_DATE":"2020-01-07","SITE":"AFETR","DECAY_DATE":null,"DECAYED":0,"FILE":2940009,"GP_ID":170388749,"TLE_LINE0":"0 STARLINK-1074","TLE_LINE1":"1 44957U 20001AV  21026.47186988  .00000634  00000-0  61451-4 0  9998","TLE_LINE2":"2 44957  53.0577  53.3482 0001480  61.9704 298.1435 15.06403824 58821"},"version":"v1.0","launch":"5eb87d3cffd86e000604b380","longitude":147,"latitude":-49.984508696422544,"height_km":565.4356831232626,"velocity_kms":7.577726061377441,"id":"5eed7714096e5900069856a9"}
